ICECUBE                 
1 42705U 98067LN  17211.87457694  .00008405  00000-0  12239-3 0  9997
2 42705  51.6396 179.6333 0003373  75.0668 285.0697 15.56647043 11729
PHOENIX                 
1 42706U 98067LP  17211.87128035  .00006985  00000-0  10304-3 0  9994
2 42706  51.6392 179.6104 0002634  89.3070 270.8224 15.56605568 11652
X-CUBESAT               
1 42707U 98067LQ  17211.87230941  .00008175  00000-0  11949-3 0  9994
2 42707  51.6388 179.6151 0002699  88.4063 271.7238 15.56588693 11646
QBEE50-LTU-OC           
1 42708U 98067LR  17211.87404174  .00008248  00000-0  12067-3 0  9999
2 42708  51.6389 179.6268 0002773  88.7651 271.3658 15.56547090 11600
ALTAIR PATHFINDER       
1 42711U 98067LS  17211.90114330  .00006112  00000-0  93893-4 0  9994
2 42711  51.6388 179.8048 0005545  65.7231 294.4339 15.55743897 11312
SHARC                   
1 42712U 98067LT  17211.89797713  .00003131  00000-0  51645-4 0  9992
2 42712  51.6395 179.7865 0003448  70.3595 289.7768 15.55678714 11556
ZA-AEROSAT              
1 42713U 98067LU  17211.88633434  .00006512  00000-0  98083-4 0  9994
2 42713  51.6391 179.7084 0003470  63.3121 296.8225 15.56166315 11319
LINK                    
1 42714U 98067LV  17211.88278731  .00010254  00000-0  14874-3 0  9993
2 42714  51.6385 179.6832 0003847  66.8763 293.2633 15.56469897 11428
CSUNSAT 1               
1 42715U 98067LW  17211.89185573  .00007407  00000-0  11084-3 0  9992
2 42715  51.6387 179.7429 0005673  57.4688 302.6851 15.56101592 11315
UPSAT                   
1 42716U 98067LX  17211.87233541  .00009600  00000-0  13840-3 0  9999
2 42716  51.6386 179.6150 0005416 117.4318 242.7225 15.56723325 11444
SPACECUBE               
1 42717U 98067LY  17211.87990869  .00007931  00000-0  11682-3 0  9990
2 42717  51.6389 179.6653 0005360 118.1926 241.9607 15.56421919 10681
HOOPOE                  
1 42718U 98067LZ  17211.87655782  .00008908  00000-0  12961-3 0  9999
2 42718  51.6388 179.6436 0005433 116.7823 243.3725 15.56578384 10687
CHALLENGER              
1 42721U 98067MA  17211.88458616  .00011486  00000-0  16434-3 0  9995
2 42721  51.6385 179.6938 0008879 102.6282 257.5703 15.56679611 10380
NJUST-1                 
1 42722U 98067MB  17211.38773426  .00007354  00000-0  11085-3 0  9996
2 42722  51.6388 182.3759 0008551 103.5367 256.6578 15.55900007 10304
UNSW-ECO                
1 42723U 98067MC  17211.18846303  .00009543  00000-0  14000-3 0  9992
2 42723  51.6391 183.2963 0008556 100.9741 259.2214 15.56234964 10251
DUTHSAT                 
1 42724U 98067MD  17211.88969491  .00010709  00000-0  15452-3 0  9992
2 42724  51.6387 179.7290 0007811 104.2030 255.9830 15.56541742 10309
LILACSAT-1              
1 42725U 98067ME  17211.39010680  .00008776  00000-0  13101-3 0  9996
2 42725  51.6390 182.3927 0007578 105.0227 255.1604 15.55884839 10204
NSIGHT-1                
1 42726U 98067MF  17211.33536174  .00005788  00000-0  90374-4 0  9990
2 42726  51.6394 182.7776 0007429 107.2492 252.9313 15.55403208 10207
SNUSAT-1                
1 42727U 98067MG  17211.19676881  .00008332  00000-0  12455-3 0  9996
2 42727  51.6384 183.3476 0009178  71.2270 288.9716 15.55917434 10148
QBITO                   
1 42728U 98067MH  17211.12577288  .00009035  00000-0  13341-3 0  9997
2 42728  51.6393 183.6294 0004731 104.9995 255.1520 15.56154522  9978
AALTO-2                 
1 42729U 98067MJ  17211.51094805  .00008615  00000-0  12751-3 0  9997
2 42729  51.6389 181.7008 0004730 107.2814 252.8696 15.56161955 10047
SUSAT                   
1 42730U 98067MK  17211.44834311  .00008455  00000-0  12560-3 0  9995
2 42730  51.6386 182.0319 0004818 105.7083 254.4440 15.56088086 10029
I-INSPIRE II            
1 42731U 98067ML  17211.37997860  .00010420  00000-0  15201-3 0  9997
2 42731  51.6381 182.3204 0008772  60.0802 300.1059 15.56270277 10060
POLYITAN-2-SAU          
1 42732U 98067MM  17211.18861930  .00009148  00000-0  13472-3 0  9998
2 42732  51.6382 183.2925 0008722  59.0076 301.1771 15.56190016 10039
SNUSAT-1B               
1 42733U 98067MN  17211.32069756  .00008640  00000-0  12821-3 0  9994
2 42733  51.6382 182.6751 0008605  60.6529 299.5321 15.56067902 10051
EXALTA-1                
1 42734U 98067MP  17211.18724350  .00010252  00000-0  14948-3 0  9991
2 42734  51.6384 183.2846 0010399  80.0485 280.1680 15.56290071  9985
AOXIANG-1               
1 42735U 98067MQ  17211.19393511  .00007322  00000-0  11021-3 0  9997
2 42735  51.6386 183.3307 0009287 100.1096 260.0944 15.55941976 11403
BEEAGLESAT              
1 42736U 98067MR  17211.19385701  .00007509  00000-0  11267-3 0  9999
2 42736  51.6387 183.3308 0009231  98.9169 261.2868 15.55987572 10094
ATLANTIS                
1 42737U 98067MS  17211.48794349  .00015389  00000-0  21259-3 0  9991
2 42737  51.6380 181.5435 0009588  95.6481 264.5605 15.57319648 10039
PROGRESS-MS 06          
1 42756U 17033A   17211.39898674  .00001374  00000-0  27931-4 0  9995
2 42756  51.6426 182.9134 0006338  86.6207  47.2377 15.54240916  7168
ISS DEB (ROSA)          
1 42813U 98067MT  17211.35760920  .00015111  00000-0  22167-3 0  9992
2 42813  51.6406 182.9211 0006200  85.8034 274.3588 15.55729916  5419
SOYUZ-MS 05             
1 42898U 17043A   17211.39898674  .00001374  00000-0  27931-4 0  9993
2 42898  51.6426 182.9134 0006338  86.6207  47.2377 15.54240916 68476
